ONEWEB-0018             
1 45434U 20020L   25145.32511718  .00000496  00000+0  13639-2 0  9991
2 45434  87.8830  98.3722 0001986  83.4238 276.7116 13.11412614251797
ONEWEB-0083             
1 45435U 20020M   25145.39126722  .00000593  00000+0  16379-2 0  9998
2 45435  87.8831  98.3432 0002097  82.8720 277.2646 13.11417849251845
ONEWEB-0095             
1 45436U 20020N   25145.61181513  .00000268  00000+0  72159-3 0  9991
2 45436  87.8830  98.3257 0002782  77.1883 282.9555 13.11418778251875
ONEWEB-0092             
1 45437U 20020P   25145.58368841 -.00000502  00000+0 -14532-2 0  9992
2 45437  87.8829  98.3190 0002258  78.6080 281.5301 13.11417630251985
ONEWEB-0085             
1 45438U 20020Q   25145.61328130  .00000238  00000+0  63606-3 0  9995
2 45438  87.8833  98.3243 0001990  81.2363 278.8990 13.11420025251879
ONEWEB-0096             
1 45439U 20020R   25145.39293224  .00000627  00000+0  17335-2 0  9995
2 45439  87.8830  98.3343 0001857  80.8088 279.3250 13.11419367251837
ONEWEB-0037             
1 45440U 20020S   25145.60235008 -.00000209  00000+0 -62590-3 0  9999
2 45440  87.8825  98.2558 0002116  80.1183 280.0183 13.11421511251892
ONEWEB-0042             
1 45441U 20020T   25145.61153247  .00000246  00000+0  65809-3 0  9990
2 45441  87.8831  98.3012 0001975  79.0661 281.0689 13.11418675251862
